{"type": "FeatureCollection", "features": [ {"type": "Feature", "properties": {"norad_id": 32169, "name": "FENGYUN 1C DEB", "group": "fengyun-1c-debris", "lat": -31.49271162887475, "lon": 173.25907345851067, "alt_km": 699.797013566279, "timestamp": "2025-12-05T14:45:15.584718+00:00", "meta": {"OBJECT_NAME": "FENGYUN 1C DEB", "OBJECT_ID": "1999-025CTP", "EPOCH": "2025-12-04T06:09:52.698816", "MEAN_MOTION": 14.67075355, "ECCENTRICITY": 0.0034027, "INCLINATION": 98.5582, "RA_OF_ASC_NODE": 166.5486, "ARG_OF_PERICENTER": 148.4984, "MEAN_ANOMALY": 211.8265, "EPHEMERIS_TYPE": 0, "CLASSIFICATION_TYPE": "U", "NORAD_CAT_ID": 32169, "ELEMENT_SET_NO": 999, "REV_AT_EPOCH": 96494, "BSTAR": 0.011425, "MEAN_MOTION_DOT": 0.00065236, "MEAN_MOTION_DDOT": 0}, "tle": {"line1": "1 32169U 99025CTP 25338.25685994  .00065236  00000+0  11425-1 0  9990", "line2": "2 32169  98.5582 166.5486 0034027 148.4984 211.8265 14.67075355964940"}}, "geometry": {"type": "Point", "coordinates": [173.25907345851067, -31.49271162887475]}}, {"type": "Feature", "properties": {"norad_id": 32171, "name": "FENGYUN 1C DEB", "group": "fengyun-1c-debris", "lat": 57.41427444105955, "lon": -146.14476318494377, "alt_km": 802.3922342987153, "timestamp": "2025-12-05T14:45:15.584729+00:00", "meta": {"OBJECT_NAME": "FENGYUN 1C DEB", "OBJECT_ID": "1999-025CTR", "EPOCH": "2025-12-03T23:12:12.508416", "MEAN_MOTION": 13.4243602, "ECCENTRICITY": 0.04879299, "INCLINATION": 102.8037, "RA_OF_ASC_NODE": 232.6035, "ARG_OF_PERICENTER": 24.8358, "MEAN_ANOMALY": 350.9132, "EPHEMERIS_TYPE": 0, "CLASSIFICATION_TYPE": "U", "NORAD_CAT_ID": 32171, "ELEMENT_SET_NO": 999, "REV_AT_EPOCH": 60498, "BSTAR": 0.0080316463, "MEAN_MOTION_DOT": 9.177e-05, "MEAN_MOTION_DDOT": 0}, "tle": {"line1": "1 32171U 99025CTR 25337.96681144  .00009177  00000+0  80316-2 0  9991", "line2": "2 32171 102.8037 232.6035 0487929  24.8358 350.9132 13.42436020604982"}}, "geometry": {"type": "Point", "coordinates": [-146.14476318494377, 57.41427444105955]}}, {"type": "Feature", "properties": {"norad_id": 32174, "name": "FENGYUN 1C DEB", "group": "fengyun-1c-debris", "lat": 27.249021882403795, "lon": -133.5493432367263, "alt_km": 874.7610276936002, "timestamp": "2025-12-05T14:45:15.584739+00:00", "meta": {"OBJECT_NAME": "FENGYUN 1C DEB", "OBJECT_ID": "1999-025CTU", "EPOCH": "2025-11-24T10:25:59.655072", "MEAN_MOTION": 14.17883196, "ECCENTRICITY": 0.01501888, "INCLINATION": 98.6025, "RA_OF_ASC_NODE": 31.1449, "ARG_OF_PERICENTER": 298.935, "MEAN_ANOMALY": 59.6834, "EPHEMERIS_TYPE": 0, "CLASSIFICATION_TYPE": "U", "NORAD_CAT_ID": 32174, "ELEMENT_SET_NO": 999, "REV_AT_EPOCH": 63846, "BSTAR": 0.00027509636, "MEAN_MOTION_DOT": 5.84e-06, "MEAN_MOTION_DDOT": 0}, "tle": {"line1": "1 32174U 99025CTU 25328.43471823  .00000584  00000+0  27510-3 0  9998", "line2": "2 32174  98.6025  31.1449 0150188 298.9350  59.6834 14.17883196638460"}}, "geometry": {"type": "Point", "coordinates": [-133.5493432367263, 27.249021882403795]}}, {"type": "Feature", "properties": {"norad_id": 32175, "name": "FENGYUN 1C DEB", "group": "fengyun-1c-debris", "lat": -80.188619337734, "lon": 32.40941361346167, "alt_km": 876.6569117290092, "timestamp": "2025-12-05T14:45:15.584749+00:00", "meta": {"OBJECT_NAME": "FENGYUN 1C DEB", "OBJECT_ID": "1999-025CTV", "EPOCH": "2025-11-30T18:04:30.432000", "MEAN_MOTION": 13.94645307, "ECCENTRICITY": 0.01526915, "INCLINATION": 98.8237, "RA_OF_ASC_NODE": 323.8389, "ARG_OF_PERICENTER": 355.8244, "MEAN_ANOMALY": 4.1634, "EPHEMERIS_TYPE": 0, "CLASSIFICATION_TYPE": "U", "NORAD_CAT_ID": 32175, "ELEMENT_SET_NO": 999, "REV_AT_EPOCH": 59673, "BSTAR": 0.0032372864, "MEAN_MOTION_DOT": 4.731e-05, "MEAN_MOTION_DDOT": 0}, "tle": {"line1": "1 32175U 99025CTV 25334.75313000  .00004731  00000+0  32373-2 0  9993", "line2": "2 32175  98.8237 323.8389 0152691 355.8244   4.1634 13.94645307596738"}}, "geometry": {"type": "Point", "coordinates": [32.40941361346167, -80.188619337734]}}, {"type": "Feature", "properties": {"norad_id": 32177, "name": "FENGYUN 1C DEB", "group": "fengyun-1c-debris", "lat": -78.43093495890355, "lon": 39.40993436179083, "alt_km": 744.9221400210445, "timestamp": "2025-12-05T14:45:15.584759+00:00", "meta": {"OBJECT_NAME": "FENGYUN 1C DEB", "OBJECT_ID": "1999-025CTX", "EPOCH": "2025-12-03T18:36:20.133792", "MEAN_MOTION": 14.56036202, "ECCENTRICITY": 0.00523267, "INCLINATION": 99.0442, "RA_OF_ASC_NODE": 346.332, "ARG_OF_PERICENTER": 71.8301, "MEAN_ANOMALY": 288.8582, "EPHEMERIS_TYPE": 0, "CLASSIFICATION_TYPE": "U", "NORAD_CAT_ID": 32177, "ELEMENT_SET_NO": 999, "REV_AT_EPOCH": 70908, "BSTAR": 0.0020691838, "MEAN_MOTION_DOT": 9.238e-05, "MEAN_MOTION_DDOT": 0}, "tle": {"line1": "1 32177U 99025CTX 25337.77523303  .00009238  00000+0  20692-2 0  9997", "line2": "2 32177  99.0442 346.3320 0052326  71.8301 288.8582 14.56036202709083"}}, "geometry": {"type": "Point", "coordinates": [39.40993436179083, -78.43093495890355]}}, {"type": "Feature", "properties": {"norad_id": 32178, "name": "FENGYUN 1C DEB", "group": "fengyun-1c-debris", "lat": -74.81164340707006, "lon": 117.77003449116285, "alt_km": 815.2992473224804, "timestamp": "2025-12-05T14:45:15.584770+00:00", "meta": {"OBJECT_NAME": "FENGYUN 1C DEB", "OBJECT_ID": "1999-025CTY", "EPOCH": "2025-11-26T06:46:13.443456", "MEAN_MOTION": 14.22843314, "ECCENTRICITY": 0.00951304, "INCLINATION": 100.3039, "RA_OF_ASC_NODE": 328.9436, "ARG_OF_PERICENTER": 8.654, "MEAN_ANOMALY": 351.6247, "EPHEMERIS_TYPE": 0, "CLASSIFICATION_TYPE": "U", "NORAD_CAT_ID": 32178, "ELEMENT_SET_NO": 999, "REV_AT_EPOCH": 63769, "BSTAR": 0.0014846781, "MEAN_MOTION_DOT": 3.436e-05, "MEAN_MOTION_DDOT": 0}, "tle": {"line1": "1 32178U 99025CTY 25330.28210004  .00003436  00000+0  14847-2 0  9997", "line2": "2 32178 100.3039 328.9436 0095130   8.6540 351.6247 14.22843314637696"}}, "geometry": {"type": "Point", "coordinates": [117.77003449116285, -74.81164340707006]}}, {"type": "Feature", "properties": {"norad_id": 32179, "name": "FENGYUN 1C DEB", "group": "fengyun-1c-debris", "lat": 49.165490288131615, "lon": 18.125862705688967, "alt_km": 974.9808302418205, "timestamp": "2025-12-05T14:45:15.584780+00:00", "meta": {"OBJECT_NAME": "FENGYUN 1C DEB", "OBJECT_ID": "1999-025CTZ", "EPOCH": "2025-12-03T02:46:28.571808", "MEAN_MOTION": 14.0367335, "ECCENTRICITY": 0.01447713, "INCLINATION": 98.911, "RA_OF_ASC_NODE": 26.1355, "ARG_OF_PERICENTER": 216.7043, "MEAN_ANOMALY": 172.1012, "EPHEMERIS_TYPE": 0, "CLASSIFICATION_TYPE": "U", "NORAD_CAT_ID": 32179, "ELEMENT_SET_NO": 999, "REV_AT_EPOCH": 65593, "BSTAR": 0.00012219611, "MEAN_MOTION_DOT": 1.67e-06, "MEAN_MOTION_DDOT": 0}, "tle": {"line1": "1 32179U 99025CTZ 25337.11560847  .00000167  00000+0  12220-3 0  9992", "line2": "2 32179  98.9110  26.1355 0144771 216.7043 172.1012 14.03673350655935"}}, "geometry": {"type": "Point", "coordinates": [18.125862705688967, 49.165490288131615]}}, {"type": "Feature", "properties": {"norad_id": 32180, "name": "FENGYUN 1C DEB", "group": "fengyun-1c-debris", "lat": 22.327323249215958, "lon": -156.4036586785807, "alt_km": 923.2460340249208, "timestamp": "2025-12-05T14:45:15.584791+00:00", "meta": {"OBJECT_NAME": "FENGYUN 1C DEB", "OBJECT_ID": "1999-025CUA", "EPOCH": "2025-12-04T08:32:09.341088", "MEAN_MOTION": 13.82324424, "ECCENTRICITY": 0.0136073, "INCLINATION": 99.587, "RA_OF_ASC_NODE": 18.3359, "ARG_OF_PERICENTER": 232.611, "MEAN_ANOMALY": 143.6726, "EPHEMERIS_TYPE": 0, "CLASSIFICATION_TYPE": "U", "NORAD_CAT_ID": 32180, "ELEMENT_SET_NO": 999, "REV_AT_EPOCH": 94152, "BSTAR": 0.00019835, "MEAN_MOTION_DOT": 1.83e-06, "MEAN_MOTION_DDOT": 0}, "tle": {"line1": "1 32180U 99025CUA 25338.35566367  .00000183  00000+0  19835-3 0  9991", "line2": "2 32180  99.5870  18.3359 0136073 232.6110 143.6726 13.82324424941521"}}, "geometry": {"type": "Point", "coordinates": [-156.4036586785807, 22.327323249215958]}}, {"type": "Feature", "properties": {"norad_id": 32181, "name": "FENGYUN 1C DEB", "group": "fengyun-1c-debris", "lat": -1.9677767038757417, "lon": 82.76794766192737, "alt_km": 725.7548216702116, "timestamp": "2025-12-05T14:45:15.584802+00:00", "meta": {"OBJECT_NAME": "FENGYUN 1C DEB", "OBJECT_ID": "1999-025CUB", "EPOCH": "2025-11-30T18:20:52.902816", "MEAN_MOTION": 14.5587127, "ECCENTRICITY": 0.00742263, "INCLINATION": 99.4729, "RA_OF_ASC_NODE": 76.9403, "ARG_OF_PERICENTER": 120.9158, "MEAN_ANOMALY": 31.1571, "EPHEMERIS_TYPE": 0, "CLASSIFICATION_TYPE": "U", "NORAD_CAT_ID": 32181, "ELEMENT_SET_NO": 999, "REV_AT_EPOCH": 96546, "BSTAR": 0.0011280546, "MEAN_MOTION_DOT": 5.08e-05, "MEAN_MOTION_DDOT": 0}, "tle": {"line1": "1 32181U 99025CUB 25334.76450119  .00005080  00000+0  11281-2 0  9997", "line2": "2 32181  99.4729  76.9403 0074226 120.9158  31.1571 14.55871270965461"}}, "geometry": {"type": "Point", "coordinates": [82.76794766192737, -1.9677767038757417]}}, {"type": "Feature", "properties": {"norad_id": 32183, "name": "FENGYUN 1C DEB", "group": "fengyun-1c-debris", "lat": -81.26332242460212, "lon": 124.65018836469055, "alt_km": 897.4845043638988, "timestamp": "2025-12-05T14:45:15.584813+00:00", "meta": {"OBJECT_NAME": "FENGYUN 1C DEB", "OBJECT_ID": "1999-025CUD", "EPOCH": "2025-12-02T20:46:03.470880", "MEAN_MOTION": 14.1004773, "ECCENTRICITY": 0.00432965, "INCLINATION": 98.7142, "RA_OF_ASC_NODE": 28.3779, "ARG_OF_PERICENTER": 88.5408, "MEAN_ANOMALY": 272.0723, "EPHEMERIS_TYPE": 0, "CLASSIFICATION_TYPE": "U", "NORAD_CAT_ID": 32183, "ELEMENT_SET_NO": 999, "REV_AT_EPOCH": 72625, "BSTAR": 0.00090671194, "MEAN_MOTION_DOT": 1.573e-05, "MEAN_MOTION_DDOT": 0}, "tle": {"line1": "1 32183U 99025CUD 25336.86531795  .00001573  00000+0  90671-3 0  9996", "line2": "2 32183  98.7142  28.3779 0043296  88.5408 272.0723 14.10047730726255"}}, "geometry": {"type": "Point", "coordinates": [124.65018836469055, -81.26332242460212]}}]}